$$SOE
2461302.500000000, A.D. 2026-Sep-19 00:00:00.0000, 1.020066879942349E+08, 6.672289252370244E+08, 2.885921408907914E+07,
2461309.500000000, A.D. 2026-Sep-26 00:00:00.0000, 9.418978904322654E+07, 6.678964514777570E+08, 2.883105141074520E+07,
2461316.500000000, A.D. 2026-Oct-03 00:00:00.0000, 8.635794277626927E+07, 6.684585431594305E+08, 2.879833613021275E+07,
2461323.500000000, A.D. 2026-Oct-10 00:00:00.0000, 7.851235421372691E+07, 6.689148772456053E+08, 2.876106350714290E+07,
2461330.500000000, A.D. 2026-Oct-17 00:00:00.0000, 7.065423540352841E+07, 6.692651388701564E+08, 2.871922917618936E+07,
2461337.500000000, A.D. 2026-Oct-24 00:00:00.0000, 6.278480545912718E+07, 6.695090214093286E+08, 2.867282914973304E+07,
2461344.500000000, A.D. 2026-Oct-31 00:00:00.0000, 5.490529068567121E+07, 6.696462263965644E+08, 2.862185979883778E+07,
2461351.500000000, A.D. 2026-Nov-07 00:00:00.0000, 4.701692513338128E+07, 6.696764633544308E+08, 2.856631778756231E+07,
2461358.500000000, A.D. 2026-Nov-14 00:00:00.0000, 3.912095177907120E+07, 6.695994504314208E+08, 2.850620001493001E+07,
2461365.500000000, A.D. 2026-Nov-21 00:00:00.0000, 3.121862252439827E+07, 6.694149165256313E+08, 2.844150378664953E+07,
2461372.500000000, A.D. 2026-Nov-28 00:00:00.0000, 2.331119601294656E+07, 6.691226018865752E+08, 2.837222706251523E+07,
2461379.500000000, A.D. 2026-Dec-05 00:00:00.0000, 1.539993688520284E+07, 6.687222565383459E+08, 2.829836839417616E+07,
2461386.500000000, A.D. 2026-Dec-12 00:00:00.0000, 7.486116636105057E+06, 6.682136396354365E+08, 2.821992679268205E+07,
2461393.500000000, A.D. 2026-Dec-19 00:00:00.0000, -4.289858121269732E+05, 6.675965197575985E+08, 2.813690169965857E+07,
2461400.500000000, A.D. 2026-Dec-26 00:00:00.0000, -8.344083964616816E+06, 6.668706752755029E+08, 2.804929300446367E+07,
2461407.500000000, A.D. 2027-Jan-02 00:00:00.0000, -1.625788376069916E+07, 6.660358945963365E+08, 2.795710106662220E+07,
2461414.500000000, A.D. 2027-Jan-09 00:00:00.0000, -2.416908361693855E+07, 6.650919763096631E+08, 2.786032673461255E+07,
2461421.500000000, A.D. 2027-Jan-16 00:00:00.0000, -3.207637447213431E+07, 6.640387292425028E+08, 2.775897135857391E+07,
2461428.500000000, A.D. 2027-Jan-23 00:00:00.0000, -3.997843978980112E+07, 6.628759723840604E+08, 2.765303678950566E+07,
2461435.500000000, A.D. 2027-Jan-30 00:00:00.0000, -4.787395533209178E+07, 6.616035346323236E+08, 2.754252534381098E+07,
2461442.500000000, A.D. 2027-Feb-06 00:00:00.0000, -5.576158828221999E+07, 6.602212547026317E+08, 2.742743972193250E+07,
2461449.500000000, A.D. 2027-Feb-13 00:00:00.0000, -6.363999617734121E+07, 6.587289824181565E+08, 2.730778302284992E+07,
2461456.500000000, A.D. 2027-Feb-20 00:00:00.0000, -7.150782801686025E+07, 6.571265805913415E+08, 2.718355900639617E+07,
2461463.500000000, A.D. 2027-Feb-27 00:00:00.0000, -7.936372615123755E+07, 6.554139242819724E+08, 2.705477221253136E+07,
2461470.500000000, A.D. 2027-Mar-06 00:00:00.0000, -8.720632593440002E+07, 6.535908993544910E+08, 2.692142781772402E+07,
2461477.500000000, A.D. 2027-Mar-13 00:00:00.0000, -9.503425474047714E+07, 6.516574023846388E+08, 2.678353154250485E+07,
2461484.500000000, A.D. 2027-Mar-20 00:00:00.0000, -1.028461314743377E+08, 6.496133410808885E+08, 2.664108964537057E+07,
2461491.500000000, A.D. 2027-Mar-27 00:00:00.0000, -1.106405663740780E+08, 6.474586346716053E+08, 2.649410893950146E+07,
2461498.500000000, A.D. 2027-Apr-03 00:00:00.0000, -1.184161609027867E+08, 6.451932142101867E+08, 2.634259680967921E+07,
2461505.500000000, A.D. 2027-Apr-10 00:00:00.0000, -1.261715076685665E+08, 6.428170228213016E+08, 2.618656122560266E+07,
2461512.500000000, A.D. 2027-Apr-17 00:00:00.0000, -1.339051903509623E+08, 6.403300158739877E+08, 2.602601074836400E+07,
2461519.500000000, A.D. 2027-Apr-24 00:00:00.0000, -1.416157835548117E+08, 6.377321610195104E+08, 2.586095451771963E+07,
2461526.500000000, A.D. 2027-May-01 00:00:00.0000, -1.493018522921700E+08, 6.350234381218628E+08, 2.569140219495094E+07,
2461533.500000000, A.D. 2027-May-08 00:00:00.0000, -1.569619507852786E+08, 6.322038398295070E+08, 2.551736389430392E+07,
2461540.500000000, A.D. 2027-May-15 00:00:00.0000, -1.645946220877098E+08, 6.292733737422565E+08, 2.533885031822991E+07,
2461547.500000000, A.D. 2027-May-22 00:00:00.0000, -1.721984000874009E+08, 6.262320635817338E+08, 2.515587302807274E+07,
2461554.500000000, A.D. 2027-May-29 00:00:00.0000, -1.797718105359233E+08, 6.230799478965344E+08, 2.496844442250386E+07,
2461561.500000000, A.D. 2027-Jun-05 00:00:00.0000, -1.873133702199622E+08, 6.198170794341334E+08, 2.477657759862143E+07,
2461568.500000000, A.D. 2027-Jun-12 00:00:00.0000, -1.948215862828458E+08, 6.164435256120027E+08, 2.458028631522673E+07,
2461575.500000000, A.D. 2027-Jun-19 00:00:00.0000, -2.022949560272611E+08, 6.129593691531010E+08, 2.437958501236275E+07,
2461582.500000000, A.D. 2027-Jun-26 00:00:00.0000, -2.097319669200061E+08, 6.093647086244723E+08, 2.417448884031633E+07,
2461589.500000000, A.D. 2027-Jul-03 00:00:00.0000, -2.171310966669557E+08, 6.056596588873903E+08, 2.396501368686274E+07,
2461596.500000000, A.D. 2027-Jul-10 00:00:00.0000, -2.244908133216553E+08, 6.018443514679371E+08, 2.375117620031905E+07,
2461603.500000000, A.D. 2027-Jul-17 00:00:00.0000, -2.318095753913530E+08, 5.979189348092395E+08, 2.353299380213869E+07,
2461610.500000000, A.D. 2027-Jul-24 00:00:00.0000, -2.390858317841621E+08, 5.938835743424666E+08, 2.331048466979471E+07,
2461617.500000000, A.D. 2027-Jul-31 00:00:00.0000, -2.463180211861288E+08, 5.897384526118362E+08, 2.308366767167804E+07,
2461624.500000000, A.D. 2027-Aug-07 00:00:00.0000, -2.535045710694081E+08, 5.854837706051677E+08, 2.285256236671665E+07,
2461631.500000000, A.D. 2027-Aug-14 00:00:00.0000, -2.606438986331578E+08, 5.811197500367999E+08, 2.261718925916478E+07,
2461638.500000000, A.D. 2027-Aug-21 00:00:00.0000, -2.677344130591189E+08, 5.766466332183914E+08, 2.237756997696850E+07,
2461645.500000000, A.D. 2027-Aug-28 00:00:00.0000, -2.747745156516230E+08, 5.720646817202889E+08, 2.213372715738624E+07,
2461652.500000000, A.D. 2027-Sep-04 00:00:00.0000, -2.817625990443524E+08, 5.673741763264183E+08, 2.188568435259959E+07,
2461659.500000000, A.D. 2027-Sep-11 00:00:00.0000, -2.886970468696345E+08, 5.625754176222353E+08, 2.163346602902916E+07,
2461666.500000000, A.D. 2027-Sep-18 00:00:00.0000, -2.955762337572657E+08, 5.576687265659039E+08, 2.137709759474668E+07,
2461673.500000000, A.D. 2027-Sep-25 00:00:00.0000, -3.023985254342628E+08, 5.526544449652905E+08, 2.111660542737246E+07,
2461680.500000000, A.D. 2027-Oct-02 00:00:00.0000, -3.091622788508365E+08, 5.475329358885791E+08, 2.085201689754888E+07,
2461687.500000000, A.D. 2027-Oct-09 00:00:00.0000, -3.158658423104786E+08, 5.423045840042758E+08, 2.058336038529778E+07,
2461694.500000000, A.D. 2027-Oct-16 00:00:00.0000, -3.225075555413513E+08, 5.369697957959776E+08, 2.031066527874723E+07,
2461701.500000000, A.D. 2027-Oct-23 00:00:00.0000, -3.290857494494730E+08, 5.315289996464041E+08, 2.003396193073434E+07,
2461708.500000000, A.D. 2027-Oct-30 00:00:00.0000, -3.355987451794893E+08, 5.259826464011614E+08, 1.975328158865073E+07,
2461715.500000000, A.D. 2027-Nov-06 00:00:00.0000, -3.420448536471956E+08, 5.203312115407433E+08, 1.946865649631897E+07,
2461722.500000000, A.D. 2027-Nov-13 00:00:00.0000, -3.484223775296861E+08, 5.145751968851269E+08, 1.918012018022165E+07,
2461729.500000000, A.D. 2027-Nov-20 00:00:00.0000, -3.547296128111867E+08, 5.087151296447288E+08, 1.888770747528273E+07,
2461736.500000000, A.D. 2027-Nov-27 00:00:00.0000, -3.609648482677424E+08, 5.027515617814753E+08, 1.859145438416231E+07,
2461743.500000000, A.D. 2027-Dec-04 00:00:00.0000, -3.671263649154984E+08, 4.966850705941764E+08, 1.829139803036490E+07,
2461750.500000000, A.D. 2027-Dec-11 00:00:00.0000, -3.732124359737927E+08, 4.905162595645189E+08, 1.798757667690468E+07,
2461757.500000000, A.D. 2027-Dec-18 00:00:00.0000, -3.792213270685850E+08, 4.842457591244876E+08, 1.768002975765887E+07,
2461764.500000000, A.D. 2027-Dec-25 00:00:00.0000, -3.851512965248533E+08, 4.778742273428589E+08, 1.736879790737572E+07,
2461771.500000000, A.D. 2028-Jan-01 00:00:00.0000, -3.910005957072138E+08, 4.714023505451815E+08, 1.705392298782542E+07,
$$EOE